NORAD_CAT_ID,OBJECT_NAME,OBJECT_TYPE,EPOCH,MEAN_MOTION,ECCENTRICITY,INCLINATION,RA_OF_ASC_NODE,ARG_OF_PERICENTER,MEAN_ANOMALY,BSTAR,MEAN_MOTION_DOT,MEAN_MOTION_DDOT,TLE_LINE0,TLE_LINE1,TLE_LINE2,SEMIMAJOR_AXIS,PERIOD,APOGEE,PERIGEE,DECAYED
52639.0,STARLINK-3968,PAYLOAD,2023-05-08 00:11:21,15.08841406,7.62e-05,53.215,232.9648,95.1116,264.9963,0.00019389,2.8e-05,0.0,0 STARLINK-3968,1 52639U 22052AT  23128.00789231  .00002800  00000-0  19389-3 0  9995,2 52639  53.2150 232.9648 0000762  95.1116 264.9963 15.08841406 55001,6917.876,95.437,540.268,539.214,0.0
52639.0,STARLINK-3968,PAYLOAD,2023-05-08 16:05:12,15.08868758,8.3e-05,53.2148,229.9911,100.4883,259.6202,0.001239,0.00019501,0.0,0 STARLINK-3968,1 52639U 22052AT  23128.67028676  .00019501  00000-0  12390-2 0  9997,2 52639  53.2148 229.9911 0000830 100.4883 259.6202 15.08868758 55101,6917.792,95.436,540.232,539.083,0.0
52639.0,STARLINK-3968,PAYLOAD,2023-05-09 11:09:49,15.08869586,7.29e-05,53.2145,226.4218,106.2236,253.8836,0.00094262,0.00014758,0.0,0 STARLINK-3968,1 52639U 22052AT  23129.46516087  .00014758  00000-0  94262-3 0  9991,2 52639  53.2145 226.4218 0000729 106.2236 253.8836 15.08869586 55225,6917.79,95.436,540.159,539.151,0.0
52639.0,STARLINK-3968,PAYLOAD,2023-05-09 12:45:13,15.08864538,6.74e-05,53.2145,226.1247,127.444,232.6614,0.0015837,0.00025023,0.0,0 STARLINK-3968,1 52639U 22052AT  23129.53140121  .00025023  00000-0  15837-2 0  9998,2 52639  53.2145 226.1247 0000674 127.4440 232.6614 15.08864538 55664,6917.805,95.436,540.137,539.204,0.0
52639.0,STARLINK-3968,PAYLOAD,2023-05-10 12:36:00,15.08840666,8.12e-05,53.2147,221.6628,94.4344,265.6741,0.00099086,0.00015517,0.0,0 STARLINK-3968,1 52639U 22052AT  23130.52500465  .00015517  00000-0  99086-3 0  9996,2 52639  53.2147 221.6628 0000812  94.4344 265.6741 15.08840666 55819,6917.878,95.438,540.305,539.182,0.0
52639.0,STARLINK-3968,PAYLOAD,2023-05-10 15:46:46,15.0884723,8.38e-05,53.2152,221.0692,101.4115,258.6972,0.0012778,0.00020111,0.0,0 STARLINK-3968,1 52639U 22052AT  23130.65748429  .00020111  00000-0  12778-2 0  9992,2 52639  53.2152 221.0692 0000838 101.4115 258.6972 15.08847230 55837,6917.858,95.437,540.303,539.144,0.0
52639.0,STARLINK-3968,PAYLOAD,2023-05-11 10:51:24,15.08848139,7.43e-05,53.2151,217.5003,74.3114,285.796,0.00072867,0.00011331,0.0,0 STARLINK-3968,1 52639U 22052AT  23131.45236697  .00011331  00000-0  72867-3 0  9990,2 52639  53.2151 217.5003 0000743  74.3114 285.7960 15.08848139 55527,6917.856,95.437,540.235,539.207,0.0
52639.0,STARLINK-3968,PAYLOAD,2023-05-11 12:26:47,15.08851243,7.97e-05,53.2153,217.2033,79.0135,281.0946,0.00073712,0.00011466,0.0,0 STARLINK-3968,1 52639U 22052AT  23131.51860629  .00011466  00000-0  73712-3 0  9994,2 52639  53.2153 217.2033 0000797  79.0135 281.0946 15.08851243 55964,6917.846,95.437,540.262,539.16,0.0
52639.0,STARLINK-3968,PAYLOAD,2023-05-12 09:06:48,15.08848423,0.0001327,53.2159,213.3372,127.0453,233.0661,0.0011081,0.00017395,0.0,0 STARLINK-3968,1 52639U 22052AT  23132.37972859  .00017395  00000-0  11081-2 0  9995,2 52639  53.2159 213.3372 0001327 127.0453 233.0661 15.08848423 56092,6917.855,95.437,540.638,538.802,0.0
52639.0,STARLINK-3968,PAYLOAD,2023-05-13 12:08:21,15.08848951,9.54e-05,53.2162,208.2822,101.6004,258.5095,0.00033604,5.066e-05,0.0,0 STARLINK-3968,1 52639U 22052AT  23133.50580668  .00005066  00000-0  33604-3 0  9992,2 52639  53.2162 208.2822 0000954 101.6004 258.5095 15.08848951 55834,6917.853,95.437,540.378,539.058,0.0
52639.0,STARLINK-3968,PAYLOAD,2023-05-13 21:40:40,15.08840912,0.0001069,53.2154,206.4939,82.0343,278.0771,0.00011995,1.622e-05,0.0,0 STARLINK-3968,1 52639U 22052AT  23133.90324977  .00001622  00000-0  11995-3 0  9998,2 52639  53.2154 206.4939 0001069  82.0343 278.0771 15.08840912 55893,6917.878,95.437,540.482,539.003,0.0
52639.0,STARLINK-3968,PAYLOAD,2023-05-14 11:59:09,15.08830962,0.0001163,53.2167,203.8247,102.5078,257.6045,-8.7548e-05,-1.681e-05,0.0,0 STARLINK-3968,1 52639U 22052AT  23134.49941548 -.00001681  00000-0 -87548-4 0  9997,2 52639  53.2167 203.8247 0001163 102.5078 257.6045 15.08830962 55989,6917.908,95.438,540.578,538.968,0.0
52639.0,STARLINK-3968,PAYLOAD,2023-05-14 13:34:32,15.08834107,0.0001153,53.2167,203.5274,105.1719,254.9401,-4.6527e-05,-1.028e-05,0.0,0 STARLINK-3968,1 52639U 22052AT  23134.56565515 -.00001028  00000-0 -46527-4 0  9998,2 52639  53.2167 203.5274 0001153 105.1719 254.9401 15.08834107 56427,6917.898,95.438,540.561,538.966,0.0
52639.0,STARLINK-3968,PAYLOAD,2023-05-14 23:06:51,15.08841991,0.0001095,53.2164,201.7426,93.2173,266.8944,0.00012464,1.696e-05,0.0,0 STARLINK-3968,1 52639U 22052AT  23134.96309275  .00001696  00000-0  12464-3 0  9992,2 52639  53.2164 201.7426 0001095  93.2173 266.8944 15.08841991 56051,6917.874,95.437,540.497,538.982,0.0
52639.0,STARLINK-3968,PAYLOAD,2023-05-15 11:49:56,15.08847213,0.0001126,53.2158,199.363,90.1033,270.0088,0.00056485,8.715e-05,0.0,0 STARLINK-3968,1 52639U 22052AT  23135.49301100  .00008715  00000-0  56485-3 0  9990,2 52639  53.2158 199.3630 0001126  90.1033 270.0088 15.08847213 56564,6917.858,95.437,540.502,538.944,0.0
52639.0,STARLINK-3968,PAYLOAD,2023-05-16 10:05:19,15.08847797,9.11e-05,53.2155,195.1981,122.5225,237.5855,0.00021559,3.146e-05,0.0,0 STARLINK-3968,1 52639U 22052AT  23136.42036894  .00003146  00000-0  21559-3 0  9996,2 52639  53.2155 195.1981 0000911 122.5225 237.5855 15.08847797 56273,6917.857,95.437,540.352,539.091,0.0
52639.0,STARLINK-3968,PAYLOAD,2023-05-16 13:16:06,15.08839311,9.3e-05,53.2153,194.6037,91.7591,268.3508,5.2392e-05,5.46e-06,0.0,0 STARLINK-3968,1 52639U 22052AT  23136.55285283  .00000546  00000-0  52392-4 0  9999,2 52639  53.2153 194.6037 0000930  91.7591 268.3508 15.08839311 56721,6917.882,95.438,540.391,539.104,0.0
52639.0,STARLINK-3968,PAYLOAD,2023-05-16 21:13:02,15.08842299,4.66e-05,53.2157,193.1159,99.4638,260.6406,0.00010408,1.369e-05,0.0,0 STARLINK-3968,1 52639U 22052AT  23136.88405118  .00001369  00000-0  10408-3 0  9991,2 52639  53.2157 193.1159 0000466  99.4638 260.6406 15.08842299 56771,6917.873,95.437,540.061,539.416,0.0
52639.0,STARLINK-3968,PAYLOAD,2023-05-17 21:03:49,15.0884274,0.0001191,53.2151,188.6587,70.5028,289.6092,0.0002881,4.301e-05,0.0,0 STARLINK-3968,1 52639U 22052AT  23137.87765535  .00004301  00000-0  28810-3 0  9998,2 52639  53.2151 188.6587 0001191  70.5028 289.6092 15.08842740 56928,6917.872,95.437,540.561,538.913,0.0
52639.0,STARLINK-3968,PAYLOAD,2023-05-18 03:25:21,15.08841747,8.57e-05,53.2161,187.4663,96.8747,263.2342,0.00024224,3.57e-05,0.0,0 STARLINK-3968,1 52639U 22052AT  23138.14261471  .00003570  00000-0  24224-3 0  9991,2 52639  53.2161 187.4663 0000857  96.8747 263.2342 15.08841747 56537,6917.875,95.437,540.333,539.147,0.0
52639.0,STARLINK-3968,PAYLOAD,2023-05-18 09:46:54,15.08837563,0.0001017,53.2153,186.2787,74.5544,285.556,0.00011212,1.497e-05,0.0,0 STARLINK-3968,1 52639U 22052AT  23138.40757732  .00001497  00000-0  11212-3 0  9999,2 52639  53.2153 186.2787 0001017  74.5544 285.5560 15.08837563 57002,6917.888,95.438,540.456,539.049,0.0
52639.0,STARLINK-3968,PAYLOAD,2023-05-18 14:33:03,15.08846195,8.7e-05,53.2152,185.3856,82.5673,277.5418,-1.1797e-05,-4.75e-06,0.0,0 STARLINK-3968,1 52639U 22052AT  23138.60629186 -.00000475  00000-0 -11797-4 0  9998,2 52639  53.2152 185.3856 0000870  82.5673 277.5418 15.08846195 57033,6917.861,95.437,540.328,539.125,0.0
52639.0,STARLINK-3968,PAYLOAD,2023-05-19 03:16:09,15.08834539,0.0001083,53.2152,183.007,80.8267,279.2848,-1.5466e-05,-5.34e-06,0.0,0 STARLINK-3968,1 52639U 22052AT  23139.13622032 -.00000534  00000-0 -15466-4 0  9993,2 52639  53.2152 183.0070 0001083  80.8267 279.2848 15.08834539 56688,6917.897,95.438,540.511,539.013,0.0
52639.0,STARLINK-3968,PAYLOAD,2023-05-19 09:37:42,15.08835496,0.000104,53.2159,181.8156,105.3113,254.7994,7.8153e-06,-1.63e-06,0.0,0 STARLINK-3968,1 52639U 22052AT  23139.40118087 -.00000163  00000-0  78153-5 0  9993,2 52639  53.2159 181.8156 0001040 105.3113 254.7994 15.08835496 57158,6917.894,95.438,540.479,539.04,0.0
52639.0,STARLINK-3968,PAYLOAD,2023-05-20 09:28:28,15.08846933,0.0001073,53.2164,177.355,109.3734,250.7374,0.00015409,2.166e-05,0.0,0 STARLINK-3968,1 52639U 22052AT  23140.39477149  .00002166  00000-0  15409-3 0  9997,2 52639  53.2164 177.3550 0001073 109.3734 250.7374 15.08846933 56875,6917.859,95.437,540.466,538.982,0.0
52639.0,STARLINK-3968,PAYLOAD,2023-05-20 19:00:47,15.08847311,9.28e-05,53.2159,175.5708,98.7314,261.3783,0.00014306,1.99e-05,0.0,0 STARLINK-3968,1 52639U 22052AT  23140.79221133  .00001990  00000-0  14306-3 0  9990,2 52639  53.2159 175.5708 0000928  98.7314 261.3783 15.08847311 57365,6917.858,95.437,540.365,539.081,0.0
52639.0,STARLINK-3968,PAYLOAD,2023-05-21 07:43:52,15.08845668,0.0001003,53.2151,173.1928,93.2084,266.9023,0.00014361,1.999e-05,0.0,0 STARLINK-3968,1 52639U 22052AT  23141.32213254  .00001999  00000-0  14361-3 0  9995,2 52639  53.2151 173.1928 0001003  93.2084 266.9023 15.08845668 57017,6917.863,95.437,540.422,539.034,0.0
52639.0,STARLINK-3968,PAYLOAD,2023-05-21 10:54:38,15.0884704,0.0001005,53.2152,172.5982,88.4979,271.6128,0.00014814,2.071e-05,0.0,0 STARLINK-3968,1 52639U 22052AT  23141.45461144  .00002071  00000-0  14814-3 0  9997,2 52639  53.2152 172.5982 0001005  88.4979 271.6128 15.08847040 57466,6917.859,95.437,540.419,539.029,0.0
52639.0,STARLINK-3968,PAYLOAD,2023-05-21 18:51:34,15.08838759,8.86e-05,53.2149,171.1081,77.5614,282.5477,-3.3998e-05,-8.29e-06,0.0,0 STARLINK-3968,1 52639U 22052AT  23141.78581456 -.00000829  00000-0 -33998-4 0  9998,2 52639  53.2149 171.1081 0000886  77.5614 282.5477 15.08838759 57081,6917.884,95.438,540.362,539.136,0.0
52639.0,STARLINK-3968,PAYLOAD,2023-05-22 12:20:50,15.08804622,0.00013,53.2154,167.8395,91.5501,268.564,0.00059398,9.169e-05,0.0,0 STARLINK-3968,1 52639U 22052AT  23142.51447707  .00009169  00000-0  59398-3 0  9995,2 52639  53.2154 167.8395 0001300  91.5501 268.5640 15.08804622 57628,6917.989,95.44,540.753,538.954,0.0
